{
  "links" : {
    "next" : "https://api.nasa.gov/neo/rest/v1/feed?start_date=2014-07-09&end_date=2014-07-09&detailed=true&api_key=t0TVs3DtDT2H8Oy2Zy8m2eVrNsAVKAexjcZXUckd",
    "prev" : "https://api.nasa.gov/neo/rest/v1/feed?start_date=2014-07-07&end_date=2014-07-07&detailed=true&api_key=t0TVs3DtDT2H8Oy2Zy8m2eVrNsAVKAexjcZXUckd",
    "self" : "https://api.nasa.gov/neo/rest/v1/feed?start_date=2014-07-08&end_date=2014-07-08&detailed=true&api_key=t0TVs3DtDT2H8Oy2Zy8m2eVrNsAVKAexjcZXUckd"
  },
  "element_count" : 7,
  "near_earth_objects" : {
    "2014-07-08" : [ {
      "links" : {
        "self" : "https://api.nasa.gov/neo/rest/v1/neo/3674023?api_key=t0TVs3DtDT2H8Oy2Zy8m2eVrNsAVKAexjcZXUckd"
      },
      "neo_reference_id" : "3674023",
      "name" : "(2014 MF19)",
      "nasa_jpl_url" : "http://ssd.jpl.nasa.gov/sbdb.cgi?sstr=3674023",
      "absolute_magnitude_h" : 23.8,
      "estimated_diameter" : {
        "kilometers" : {
          "estimated_diameter_min" : 0.046190746,
          "estimated_diameter_max" : 0.1032856481
        },
        "meters" : {
          "estimated_diameter_min" : 46.1907460282,
          "estimated_diameter_max" : 103.2856480504
        },
        "miles" : {
          "estimated_diameter_min" : 0.0287015901,
          "estimated_diameter_max" : 0.0641787064
        },
        "feet" : {
          "estimated_diameter_min" : 151.544447199,
          "estimated_diameter_max" : 338.8636855496
        }
      },
      "is_potentially_hazardous_asteroid" : false,
      "close_approach_data" : [ {
        "close_approach_date" : "2014-07-08",
        "epoch_date_close_approach" : 1404802800000,
        "relative_velocity" : {
          "kilometers_per_second" : "13.0742775589",
          "kilometers_per_hour" : "47067.3992118827",
          "miles_per_hour" : "29245.8514714057"
        },
        "miss_distance" : {
          "astronomical" : "0.0998356212",
          "lunar" : "38.8360557556",
          "kilometers" : "14935196",
          "miles" : "9280301"
        },
        "orbiting_body" : "Earth"
      } ],
      "orbital_data" : {
        "orbit_id" : "4",
        "orbit_determination_date" : "2017-04-06 08:39:55",
        "orbit_uncertainty" : "8",
        "minimum_orbit_intersection" : ".0761115",
        "jupiter_tisserand_invariant" : "4.053",
        "epoch_osculation" : "2456833.5",
        "eccentricity" : ".4321692447084871",
        "semi_major_axis" : "1.682802410328021",
        "inclination" : "20.45643671165923",
        "ascending_node_longitude" : "95.3848393741755",
        "orbital_period" : "797.3483777485914",
        "perihelion_distance" : ".9555469636629385",
        "perihelion_argument" : "238.5221300637391",
        "aphelion_distance" : "2.410057856993103",
        "perihelion_time" : "2456890.745420895799",
        "mean_anomaly" : "334.1538929562034",
        "mean_motion" : ".4514964976996669",
        "equinox" : "J2000"
      }
    }, {
      "links" : {
        "self" : "https://api.nasa.gov/neo/rest/v1/neo/2417419?api_key=t0TVs3DtDT2H8Oy2Zy8m2eVrNsAVKAexjcZXUckd"
      },
      "neo_reference_id" : "2417419",
      "name" : "417419 (2006 KL21)",
      "nasa_jpl_url" : "http://ssd.jpl.nasa.gov/sbdb.cgi?sstr=2417419",
      "absolute_magnitude_h" : 20.9,
      "estimated_diameter" : {
        "kilometers" : {
          "estimated_diameter_min" : 0.1756123185,
          "estimated_diameter_max" : 0.3926810818
        },
        "meters" : {
          "estimated_diameter_min" : 175.6123184804,
          "estimated_diameter_max" : 392.6810818086
        },
        "miles" : {
          "estimated_diameter_min" : 0.1091204019,
          "estimated_diameter_max" : 0.2440006365
        },
        "feet" : {
          "estimated_diameter_min" : 576.1559189633,
          "estimated_diameter_max" : 1288.3238004408
        }
      },
      "is_potentially_hazardous_asteroid" : true,
      "close_approach_data" : [ {
        "close_approach_date" : "2014-07-08",
        "epoch_date_close_approach" : 1404802800000,
        "relative_velocity" : {
          "kilometers_per_second" : "14.9968201603",
          "kilometers_per_hour" : "53988.5525771426",
          "miles_per_hour" : "33546.387016614"
        },
        "miss_distance" : {
          "astronomical" : "0.4494388348",
          "lunar" : "174.8317108154",
          "kilometers" : "67235096",
          "miles" : "41777952"
        },
        "orbiting_body" : "Earth"
      } ],
      "orbital_data" : {
        "orbit_id" : "51",
        "orbit_determination_date" : "2017-04-06 09:21:17",
        "orbit_uncertainty" : "0",
        "minimum_orbit_intersection" : ".0482532",
        "jupiter_tisserand_invariant" : "5.279",
        "epoch_osculation" : "2458000.5",
        "eccentricity" : ".1274112598775824",
        "semi_major_axis" : "1.199065473945564",
        "inclination" : "9.354954175523327",
        "ascending_node_longitude" : "117.2199878918424",
        "orbital_period" : "479.581888924124",
        "perihelion_distance" : "1.046291031234449",
        "perihelion_argument" : "214.2466045527106",
        "aphelion_distance" : "1.351839916656679",
        "perihelion_time" : "2457827.085876988116",
        "mean_anomaly" : "130.1739822250782",
        "mean_motion" : ".7506538681175189",
        "equinox" : "J2000"
      }
    }, {
      "links" : {
        "self" : "https://api.nasa.gov/neo/rest/v1/neo/3092339?api_key=t0TVs3DtDT2H8Oy2Zy8m2eVrNsAVKAexjcZXUckd"
      },
      "neo_reference_id" : "3092339",
      "name" : "(2001 SQ263)",
      "nasa_jpl_url" : "http://ssd.jpl.nasa.gov/sbdb.cgi?sstr=3092339",
      "absolute_magnitude_h" : 22.4,
      "estimated_diameter" : {
        "kilometers" : {
          "estimated_diameter_min" : 0.0880146521,
          "estimated_diameter_max" : 0.1968067451
        },
        "meters" : {
          "estimated_diameter_min" : 88.0146520901,
          "estimated_diameter_max" : 196.8067450894
        },
        "miles" : {
          "estimated_diameter_min" : 0.0546897524,
          "estimated_diameter_max" : 0.122290004
        },
        "feet" : {
          "estimated_diameter_min" : 288.7619911632,
          "estimated_diameter_max" : 645.6914415591
        }
      },
      "is_potentially_hazardous_asteroid" : false,
      "close_approach_data" : [ {
        "close_approach_date" : "2014-07-08",
        "epoch_date_close_approach" : 1404802800000,
        "relative_velocity" : {
          "kilometers_per_second" : "15.2240788945",
          "kilometers_per_hour" : "54806.684020362",
          "miles_per_hour" : "34054.7420792077"
        },
        "miss_distance" : {
          "astronomical" : "0.446682653",
          "lunar" : "173.759552002",
          "kilometers" : "66822776",
          "miles" : "41521748"
        },
        "orbiting_body" : "Earth"
      } ],
      "orbital_data" : {
        "orbit_id" : "21",
        "orbit_determination_date" : "2017-04-06 09:16:06",
        "orbit_uncertainty" : "0",
        "minimum_orbit_intersection" : ".032103",
        "jupiter_tisserand_invariant" : "6.234",
        "epoch_osculation" : "2458000.5",
        "eccentricity" : ".4914158422799518",
        "semi_major_axis" : ".9474258062857155",
        "inclination" : "3.940930724661483",
        "ascending_node_longitude" : "327.1342250964502",
        "orbital_period" : "336.8342475542343",
        "perihelion_distance" : ".4818457556920582",
        "perihelion_argument" : "262.5065746486796",
        "aphelion_distance" : "1.413005856879373",
        "perihelion_time" : "2457833.745346728789",
        "mean_anomaly" : "178.2231931982213",
        "mean_motion" : "1.068774931925637",
        "equinox" : "J2000"
      }
    } ]
  }
}